{"type":"FeatureCollection","features":[{"type":"Feature","geometry":{"type":"Point","coordinates":[-123.506241,40.506958]},"properties":{"Name":"Lamb Fire","Final":true,"Updated":"2026-02-06T10:49:18Z","Started":"2026-01-24T14:17:06Z","AdminUnit":"U.S. Forest Service Six Rivers National Forest","AdminUnitUrl":null,"County":"Trinity","Location":"Hastings Tie Road, three miles north of Mad River","AcresBurned":10.0,"PercentContained":100.0,"ControlStatement":null,"AgencyNames":"","Longitude":-123.506241,"Latitude":40.506958,"Type":"Wildfire","UniqueId":"8f9a3173-0ea3-46c2-a4f9-8b254990c187","Url":"https://www.fire.ca.gov/incidents/2026/1/24/lamb-fire/","ExtinguishedDate":"","ExtinguishedDateOnly":"","StartedDateOnly":"2026-01-24","IsActive":false,"CalFireIncident":true,"NotificationDesired":false}},{"type":"Feature","geometry":{"type":"Point","coordinates":[-122.67011,41.362804]},"properties":{"Name":"East Fork Fire","Final":true,"Updated":"2026-01-29T11:27:24Z","Started":"2026-01-27T15:09:19Z","AdminUnit":"CAL FIRE Siskiyou Unit","AdminUnitUrl":null,"County":"Siskiyou","Location":"Kangaroo Creek Road, Callahan ","AcresBurned":10.7,"PercentContained":100.0,"ControlStatement":null,"AgencyNames":"","Longitude":-122.67011,"Latitude":41.362804,"Type":"Wildfire","UniqueId":"9fa1f646-0539-44ef-b868-41fc490de65c","Url":"https://www.fire.ca.gov/incidents/2026/1/27/east-fork-fire/","ExtinguishedDate":"2026-01-28T17:00:00Z","ExtinguishedDateOnly":"2026-01-28","StartedDateOnly":"2026-01-27","IsActive":false,"CalFireIncident":true,"NotificationDesired":false}},{"type":"Feature","geometry":{"type":"Point","coordinates":[-120.473025,41.525772]},"properties":{"Name":"Ag Fire","Final":true,"Updated":"2026-02-07T22:00:32Z","Started":"2026-02-06T13:01:09Z","AdminUnit":"CAL FIRE Lassen-Modoc Unit","AdminUnitUrl":null,"County":"Modoc","Location":"Hwy 395 and Hwy 299, Northeast of Alturas","AcresBurned":11.0,"PercentContained":100.0,"ControlStatement":null,"AgencyNames":"","Longitude":-120.473025,"Latitude":41.525772,"Type":"Wildfire","UniqueId":"94b577bd-a3da-427e-aef9-ce4e51d750ee","Url":"https://www.fire.ca.gov/incidents/2026/2/6/ag-fire/","ExtinguishedDate":"2026-02-07T21:13:12Z","ExtinguishedDateOnly":"2026-02-07","StartedDateOnly":"2026-02-06","IsActive":false,"CalFireIncident":true,"NotificationDesired":false}},{"type":"Feature","geometry":{"type":"Point","coordinates":[-121.325398,41.091881]},"properties":{"Name":"Valley Fire","Final":true,"Updated":"2026-03-13T22:12:16Z","Started":"2026-03-13T13:51:43Z","AdminUnit":"CAL FIRE Lassen-Modoc Unit","AdminUnitUrl":null,"County":"Lassen","Location":"County Road 429, Pittville","AcresBurned":40.0,"PercentContained":100.0,"ControlStatement":null,"AgencyNames":"","Longitude":-121.325398,"Latitude":41.091881,"Type":"Wildfire","UniqueId":"f8f00c08-2df8-4324-9f67-60d84e409fd9","Url":"https://www.fire.ca.gov/incidents/2026/3/13/valley-fire/","ExtinguishedDate":"2026-03-13T16:00:00Z","ExtinguishedDateOnly":"2026-03-13","StartedDateOnly":"2026-03-13","IsActive":false,"CalFireIncident":true,"NotificationDesired":false}},{"type":"Feature","geometry":{"type":"Point","coordinates":[-118.288987,35.31376]},"properties":{"Name":"Canyon Fire","Final":false,"Updated":"2026-03-24T08:44:06Z","Started":"2026-03-20T19:14:00Z","AdminUnit":null,"AdminUnitUrl":null,"County":"Kern","Location":"Near Back Canyon Road ","AcresBurned":17.0,"PercentContained":100.0,"ControlStatement":null,"AgencyNames":"","Longitude":-118.288987,"Latitude":35.31376,"Type":"Wildfire","UniqueId":"57e6d6fc-66db-4864-8929-a578cac494dc","Url":"https://www.fire.ca.gov/incidents/2026/3/20/canyon-fire/","ExtinguishedDate":"2026-03-24T07:00:29Z","ExtinguishedDateOnly":"2026-03-24","StartedDateOnly":"2026-03-20","IsActive":true,"CalFireIncident":true,"NotificationDesired":false}},{"type":"Feature","geometry":{"type":"Point","coordinates":[-120.230337,37.616619]},"properties":{"Name":"Hunter Fire","Final":false,"Updated":"2026-03-24T07:31:05Z","Started":"2026-03-22T13:03:36Z","AdminUnit":"CAL FIRE Madera-Mariposa-Merced Unit","AdminUnitUrl":null,"County":"Mariposa","Location":"Near Hunters Valley Road and Detweiller Road","AcresBurned":20.7,"PercentContained":80.0,"ControlStatement":null,"AgencyNames":"","Longitude":-120.230337,"Latitude":37.616619,"Type":"Wildfire","UniqueId":"811b3942-6305-43d6-83b3-2469deb63146","Url":"https://www.fire.ca.gov/incidents/2026/3/22/hunter-fire/","ExtinguishedDate":"","ExtinguishedDateOnly":"","StartedDateOnly":"2026-03-22","IsActive":true,"CalFireIncident":true,"NotificationDesired":false}},{"type":"Feature","geometry":{"type":"Point","coordinates":[-120.347595,36.603111]},"properties":{"Name":"Derrick Fire","Final":false,"Updated":"2026-03-24T12:04:43Z","Started":"2026-03-24T11:30:04Z","AdminUnit":"CAL FIRE Fresno-Kings Unit","AdminUnitUrl":null,"County":"Fresno","Location":"Unknown / TBD","AcresBurned":15.0,"PercentContained":null,"ControlStatement":null,"AgencyNames":"","Longitude":-120.347595,"Latitude":36.603111,"Type":"Wildfire","UniqueId":"52e04bc2-2e07-4b6d-9210-f699a542da3c","Url":"https://www.fire.ca.gov/incidents/2026/3/24/derrick-fire/","ExtinguishedDate":"","ExtinguishedDateOnly":"","StartedDateOnly":"2026-03-24","IsActive":true,"CalFireIncident":true,"NotificationDesired":false}}]}